NORAD_CAT_ID,OBJECT_NAME,OBJECT_TYPE,EPOCH,MEAN_MOTION,ECCENTRICITY,INCLINATION,RA_OF_ASC_NODE,ARG_OF_PERICENTER,MEAN_ANOMALY,BSTAR,MEAN_MOTION_DOT,MEAN_MOTION_DDOT,TLE_LINE0,TLE_LINE1,TLE_LINE2,SEMIMAJOR_AXIS,PERIOD,APOGEE,PERIGEE,DECAYED
51871.0,STARLINK-3567,PAYLOAD,2022-09-12 06:00:00,15.08843095,0.0001521999999999,53.2167,330.3156,65.202,89.0246,-0.00011336,-2.092e-05,0.0,0 STARLINK-3567,1 51871U 22022V   22255.25001157 -.00002092  00000-0 -11336-3 0  9999,2 51871  53.2167 330.3156 0001522  65.2020  89.0246 15.08843095 30762,6917.871,95.437,540.789,538.683,0.0
51871.0,STARLINK-3567,PAYLOAD,2022-09-12 14:00:01,15.08814044,0.0001588,53.2166,328.8209,55.3993,110.4344,0.0012717,0.00019995,0.0,0 STARLINK-3567,1 51871U 22022V   22255.58334491  .00019995  00000-0  12717-2 0  9996,2 51871  53.2166 328.8209 0001588  55.3993 110.4344 15.08814044  1301,6917.96,95.439,540.923,538.726,0.0
51871.0,STARLINK-3567,PAYLOAD,2022-09-12 22:00:00,15.08842719,0.0001462,53.2165,327.3232,58.0853,119.3264,-0.00039298,-6.537e-05,0.0,0 STARLINK-3567,1 51871U 22022V   22255.91667824 -.00006537  00000-0 -39298-3 0  9996,2 51871  53.2165 327.3232 0001462  58.0853 119.3264 15.08842719  1305,6917.871999999999,95.437,540.748,538.726,0.0
51871.0,STARLINK-3567,PAYLOAD,2022-09-13 06:00:00,15.08779492,0.0001465,53.2171,325.8119,59.0177,130.0029,0.0037917,0.00060474,0.0,0 STARLINK-3567,1 51871U 22022V   22256.25001157  .00060474  00000-0  37917-2 0  9998,2 51871  53.2171 325.8119 0001465  59.0177 130.0029 15.08779492 30917,6918.065,95.441,540.944,538.9169999999998,0.0
51871.0,STARLINK-3567,PAYLOAD,2022-09-13 14:00:01,15.0883603,0.0001613,53.2175,324.3116,52.3515,148.2171,9.9335e-05,1.293e-05,0.0,0 STARLINK-3567,1 51871U 22022V   22256.58334491  .00001293  00000-0  99335-4 0  9992,2 51871  53.2175 324.3116 0001613  52.3515 148.2171 15.08836030  1301,6917.893,95.438,540.873,538.6419999999998,0.0
51871.0,STARLINK-3567,PAYLOAD,2022-09-13 22:00:00,15.08844641,0.0001591,53.2164,322.8337,61.4384,150.7523,-0.0009507999999999,-0.0001539,0.0,0 STARLINK-3567,1 51871U 22022V   22256.91667824 -.00015390  00000-0 -95080-3 0  9995,2 51871  53.2164 322.8337 0001591  61.4384 150.7523 15.08844641  1303,6917.866,95.437,540.832,538.631,0.0
51871.0,STARLINK-3567,PAYLOAD,2022-09-14 06:00:00,15.08829223,0.0001453999999999,53.2165,321.3373,63.3913,160.3867,5.4819e-05,5.84e-06,0.0,0 STARLINK-3567,1 51871U 22022V   22257.25001157  .00000584  00000-0  54819-4 0  9997,2 51871  53.2165 321.3373 0001454  63.3913 160.3867 15.08829223 31068,6917.913000000001,95.438,540.784,538.7719999999998,0.0
51871.0,STARLINK-3567,PAYLOAD,2022-09-14 14:00:01,15.08838932,0.000174,53.2169,319.8346,58.4638,176.9159,-0.0019652,-0.00031428,0.0,0 STARLINK-3567,1 51871U 22022V   22257.58334491 -.00031428  00000-0 -19652-2 0  9990,2 51871  53.2169 319.8346 0001740  58.4638 176.9159 15.08838932  1309,6917.884,95.438,540.952,538.545,0.0
51871.0,STARLINK-3567,PAYLOAD,2022-09-14 22:00:00,15.08768893,0.0001395,53.2174,318.3297,59.1066,187.8708,0.0058597,0.00094032,0.0,0 STARLINK-3567,1 51871U 22022V   22257.91667824  .00094032  00000-0  58597-2 0  9995,2 51871  53.2174 318.3297 0001395  59.1066 187.8708 15.08768893  1302,6918.098000000001,95.442,540.928,538.998,0.0
51871.0,STARLINK-3567,PAYLOAD,2022-09-15 06:00:00,15.08874802,0.0001408,53.2161,316.848,62.9185,195.6208,-0.0026333,-0.00041992,0.0,0 STARLINK-3567,1 51871U 22022V   22258.25001157 -.00041992  00000-0 -26333-2 0  9996,2 51871  53.2161 316.8480 0001408  62.9185 195.6208 15.08874802 31217,6917.774,95.435,540.613,538.665,0.0
51871.0,STARLINK-3567,PAYLOAD,2022-09-15 14:00:01,15.08811139,0.0001513,53.2158,315.353,52.5073,217.6608,0.0032119999999999,0.00051162,0.0,0 STARLINK-3567,1 51871U 22022V   22258.58334491  .00051162  00000-0  32120-2 0  9991,2 51871  53.2158 315.3530 0001513  52.5073 217.6608 15.08811139  1301,6917.969,95.439,540.88,538.7869999999998,0.0
51871.0,STARLINK-3567,PAYLOAD,2022-09-15 20:45:23,15.08839533,0.000154,53.217,314.0876,58.7474,301.3669,0.00010504,1.384e-05,0.0,0 STARLINK-3567,1 51871U 22022V   22258.86485921  .00001384  00000-0  10504-3 0  9991,2 51871  53.2170 314.0876 0001540  58.7474 301.3669 15.08839533 31306,6917.882,95.438,540.812,538.681,0.0
51871.0,STARLINK-3567,PAYLOAD,2022-09-16 12:39:15,15.08840057,0.0001675999999999,53.2157,311.1125,40.7178,319.3939,1.7248e-06,-2.61e-06,0.0,0 STARLINK-3567,1 51871U 22022V   22259.52726130 -.00000261  00000-0  17248-5 0  9993,2 51871  53.2157 311.1125 0001676  40.7178 319.3939 15.08840057 31478,6917.88,95.438,540.905,538.586,0.0
51871.0,STARLINK-3567,PAYLOAD,2022-09-16 20:36:11,15.08834311,0.0001545,53.2168,309.6272,58.4016,301.7127,9.1292e-05,1.165e-05,0.0,0 STARLINK-3567,1 51871U 22022V   22259.85846512  .00001165  00000-0  91292-4 0  9999,2 51871  53.2168 309.6272 0001545  58.4016 301.7127 15.08834311 31455,6917.898,95.438,540.832,538.694,0.0
51871.0,STARLINK-3567,PAYLOAD,2022-09-17 10:54:39,15.08845232,0.0001557,53.2166,306.9508,61.2442,298.8706,6.1924e-05,6.98e-06,0.0,0 STARLINK-3567,1 51871U 22022V   22260.45461868  .00000698  00000-0  61924-4 0  9993,2 51871  53.2166 306.9508 0001557  61.2442 298.8706 15.08845232 31546,6917.864000000001,95.437,540.807,538.6519999999998,0.0
51871.0,STARLINK-3567,PAYLOAD,2022-09-18 09:10:03,15.08829238,0.0001686999999999,53.2169,302.7898,59.5596,300.5563,7.7602e-05,9.47e-06,0.0,0 STARLINK-3567,1 51871U 22022V   22261.38199043  .00000947  00000-0  77602-4 0  9996,2 51871  53.2169 302.7898 0001687  59.5596 300.5563 15.08829238 31684,6917.913000000001,95.438,540.945,538.611,0.0
51871.0,STARLINK-3567,PAYLOAD,2022-09-18 12:20:49,15.08834879,0.0001737,53.2177,302.194,59.1085,301.0078,0.00012031,1.627e-05,0.0,0 STARLINK-3567,1 51871U 22022V   22261.51446669  .00001627  00000-0  12031-3 0  9990,2 51871  53.2177 302.1940 0001737  59.1085 301.0078 15.08834879 31774,6917.896,95.438,540.9630000000002,538.559,0.0
51871.0,STARLINK-3567,PAYLOAD,2022-09-18 20:17:45,15.08836376,0.0001788,53.2177,300.7072,58.6452,301.4715,0.00011316,1.513e-05,0.0,0 STARLINK-3567,1 51871U 22022V   22261.84566721  .00001513  00000-0  11316-3 0  9997,2 51871  53.2177 300.7072 0001788  58.6452 301.4715 15.08836376 31824,6917.891,95.438,540.993,538.52,0.0
51871.0,STARLINK-3567,PAYLOAD,2022-09-19 02:39:17,15.08846642,0.000149,53.2167,299.5167,63.70399999999999,296.4105,0.00015035,2.106e-05,0.0,0 STARLINK-3567,1 51871U 22022V   22262.11061886  .00002106  00000-0  15035-3 0  9991,2 51871  53.2167 299.5167 0001490  63.7040 296.4105 15.08846642 31792,6917.86,95.437,540.756,538.694,0.0
51871.0,STARLINK-3567,PAYLOAD,2022-09-19 09:00:50,15.08851728,0.00016,53.2158,298.3272,57.3566,302.758,0.00028583,4.265e-05,0.0,0 STARLINK-3567,1 51871U 22022V   22262.37557956  .00004265  00000-0  28583-3 0  9997,2 51871  53.2158 298.3272 0001600  57.3566 302.7580 15.08851728 31903,6917.845,95.437,540.816,538.6030000000002,0.0
51871.0,STARLINK-3567,PAYLOAD,2022-09-20 02:30:04,15.08847192,0.0001658,53.2153,295.0559,54.7216,305.3931,0.00019515,2.82e-05,0.0,0 STARLINK-3567,1 51871U 22022V   22263.10422190  .00002820  00000-0  19515-3 0  9990,2 51871  53.2153 295.0559 0001658  54.7216 305.3931 15.08847192 32018,6917.858,95.437,540.87,538.576,0.0
51871.0,STARLINK-3567,PAYLOAD,2022-09-21 03:56:14,15.08843819,0.0001668,53.2153,290.2977,59.4684,300.6472,2.4845e-05,1.07e-06,0.0,0 STARLINK-3567,1 51871U 22022V   22264.16406070  .00000107  00000-0  24845-4 0  9995,2 51871  53.2153 290.2977 0001668  59.4684 300.6472 15.08843819 32101,6917.869000000002,95.437,540.888,538.58,0.0
51871.0,STARLINK-3567,PAYLOAD,2022-09-21 05:31:37,15.08843822,0.000169,53.2153,290.0007,58.2801,301.8356,2.2303000000000007e-05,6.7e-07,0.0,0 STARLINK-3567,1 51871U 22022V   22264.23030050  .00000067  00000-0  22303-4 0  9996,2 51871  53.2153 290.0007 0001690  58.2801 301.8356 15.08843822 32182,6917.869000000002,95.437,540.903,538.565,0.0
51871.0,STARLINK-3567,PAYLOAD,2022-09-22 03:47:02,15.08834027,0.0001621999999999,53.2161,285.8375,57.0732,303.0416,-7.156599999999999e-06,-4.02e-06,0.0,0 STARLINK-3567,1 51871U 22022V   22265.15766851 -.00000402  00000-0 -71566-5 0  9994,2 51871  53.2161 285.8375 0001622  57.0732 303.0416 15.08834027 32252,6917.899,95.438,540.886,538.6419999999998,0.0
51871.0,STARLINK-3567,PAYLOAD,2022-09-22 08:33:11,15.08835908,0.0001644,53.2161,284.9455,55.5322,304.5825,5.9382e-06,-1.94e-06,0.0,0 STARLINK-3567,1 51871U 22022V   22265.35638746 -.00000194  00000-0  59382-5 0  9996,2 51871  53.2161 284.9455 0001644  55.5322 304.5825 15.08835908 32353,6917.893,95.438,540.895,538.621,0.0
51871.0,STARLINK-3567,PAYLOAD,2022-09-22 21:16:16,15.08837936,0.0001654,53.2162,282.5665,55.2879,304.8268,7.454e-05,8.98e-06,0.0,0 STARLINK-3567,1 51871U 22022V   22265.88630571  .00000898  00000-0  74540-4 0  9994,2 51871  53.2162 282.5665 0001654  55.2879 304.8268 15.08837936 32432,6917.887,95.438,540.896,538.607,0.0
51871.0,STARLINK-3567,PAYLOAD,2022-09-23 05:13:12,15.08840082,0.0001662,53.2161,281.0795,55.944,304.171,8.6025e-05,1.081e-05,0.0,0 STARLINK-3567,1 51871U 22022V   22266.21750469  .00001081  00000-0  86025-4 0  9997,2 51871  53.2161 281.0795 0001662  55.9440 304.1710 15.08840082 32418,6917.88,95.438,540.895,538.595,0.0
51871.0,STARLINK-3567,PAYLOAD,2022-09-23 08:23:59,15.08825765,0.0001778,53.2161,280.4849,53.4337,306.6818,-3.6442e-05,-8.68e-06,0.0,0 STARLINK-3567,1 51871U 22022V   22266.34999785 -.00000868  00000-0 -36442-4 0  9999,2 51871  53.2161 280.4849 0001778  53.4337 306.6818 15.08825765 32504,6917.924,95.438,541.019,538.559,0.0
51871.0,STARLINK-3567,PAYLOAD,2022-09-23 22:42:27,15.08828251,0.0001720999999999,53.2162,277.8083,57.0619,303.0539,6.697e-05,7.78e-06,0.0,0 STARLINK-3567,1 51871U 22022V   22266.94615700  .00000778  00000-0  66970-4 0  9994,2 51871  53.2162 277.8083 0001721  57.0619 303.0539 15.08828251 32522,6917.916,95.438,540.972,538.591,0.0
